O3B FM17                
1 44114U 19020C   26064.97572628 -.00000026  00000+0  00000+0 0  9997
2 44114   0.0392 340.3096 0002683 359.5443  20.1300  5.00115470126364
O3B FM18                
1 44115U 19020D   26062.52332968 -.00000028  00000+0  00000+0 0  9990
2 44115   0.0519   0.0145 0002751 341.7220  18.2467  5.00115242126362
SES-17                  
1 49332U 21095A   26065.21167514 -.00000277  00000+0  00000+0 0  9999
2 49332   0.0242  64.5125 0001010 283.1683 185.3504  1.00270429 16825
SES-22                  
1 52933U 22071A   26065.19746175  .00000000  00000+0  00000+0 0  9991
2 52933   0.0175 160.9252 0001059 183.8940 111.1981  1.00269177  6483
SES-20                  
1 53960U 22123A   26064.33517131 -.00000109  00000+0  00000+0 0  9994
2 53960   0.0163 109.4128 0001608 314.8769 116.3178  1.00271408 12499
SES-21                  
1 53961U 22123B   26064.82555892  .00000063  00000+0  00000+0 0  9993
2 53961   0.0276  67.6455 0001240 275.9781 346.1336  1.00273615  6175
O3B MPOWER F1           
1 54755U 22174A   26065.07500121 -.00000026  00000+0  00000+0 0  9994
2 54755   0.0639 350.8676 0005191  10.6556 134.0526  5.00103109 60208
O3B MPOWER F2           
1 54756U 22174B   26062.53384886 -.00000028  00000+0  00000+0 0  9993
2 54756   0.1272 326.2177 0046125  76.0907 318.0389  5.00690325 60150
SES-18                  
1 55970U 23038A   26065.18377969 -.00000106  00000+0  00000+0 0  9997
2 55970   0.0556 272.4265 0002337  38.9405 175.5881  1.00272256 11075
SES-19                  
1 55971U 23038B   26065.26965541  .00000083  00000+0  00000+0 0  9999
2 55971   0.0495 290.0916 0001704  54.5903 141.4781  1.00273357 11053
O3B MPOWER F4           
1 56367U 23059A   26048.24074746 -.00000015  00000+0  00000+0 0  9995
2 56367   0.0593   7.9241 0006460 334.3658  17.6828  5.00119607 52601
O3B MPOWER F5           
1 58346U 23175A   26064.76507743 -.00000026  00000+0  00000+0 0  9998
2 58346   0.0400   3.1544 0004142 346.3643  10.4669  5.00115717 44268
ASTRA 1P (SES-24)       
1 60086U 24115A   26063.37128004  .00000108  00000+0  00000+0 0  9992
2 60086   0.0597 335.5167 0005274 347.3044 352.1506  1.00273834  6147
O3B MPOWER F7           
1 62362U 24244A   26065.13185538 -.00000026  00000+0  00000+0 0  9995
2 62362   0.0699   4.7401 0006124 339.3722  15.8630  5.00115163 21371
O3B MPOWER F8           
1 62363U 24244B   26065.09883714 -.00000026  00000+0  00000+0 0  9992
2 62363   0.0517 316.5178 0006615  20.9254  22.5222  5.00115759 15718
